[{"OBJECT_NAME":"STARLINK-33752","OBJECT_ID":"2025-076M","EPOCH":"2026-03-09T09:25:21.960192","MEAN_MOTION":15.27551813,"ECCENTRICITY":7.772e-5,"INCLINATION":42.998,"RA_OF_ASC_NODE":323.4909,"ARG_OF_PERICENTER":69.1692,"MEAN_ANOMALY":290.9243,"EPHEMERIS_TYPE":0,"CLASSIFICATION_TYPE":"U","NORAD_CAT_ID":63580,"ELEMENT_SET_NO":999,"REV_AT_EPOCH":5178,"BSTAR":0.0016645556,"MEAN_MOTION_DOT":0.00045788,"MEAN_MOTION_DDOT":0},{"OBJECT_NAME":"OBJECT BD","OBJECT_ID":"2025-313BD","EPOCH":"2026-03-09T15:06:44.992224","MEAN_MOTION":15.3000236,"ECCENTRICITY":0.00072867,"INCLINATION":97.397,"RA_OF_ASC_NODE":145.285,"ARG_OF_PERICENTER":333.4514,"MEAN_ANOMALY":26.6352,"EPHEMERIS_TYPE":0,"CLASSIFICATION_TYPE":"U","NORAD_CAT_ID":67299,"ELEMENT_SET_NO":999,"REV_AT_EPOCH":1083,"BSTAR":0.0027633805,"MEAN_MOTION_DOT":0.0008101,"MEAN_MOTION_DDOT":0}]
