STARLINK-33752          
1 63580U 25076M   26068.39261528  .00045788  00000+0  16646-2 0  9996
2 63580  42.9980 323.4909 0000777  69.1692 290.9243 15.27551813 51788
2025-313BD              
1 67299U 25313BD  26068.62968741  .00081010  00000+0  27634-2 0  9995
2 67299  97.3970 145.2850 0007287 333.4514  26.6352 15.30002360 10838
